KUIPER-00020            
1 63735U 25088M   26068.31464775  .00004902  00000+0  67043-3 0  9993
2 63735  51.9003 104.7471 0006561  80.9967 279.1738 14.79999577 47606
GEESAT-5 03             
1 65552U 25201C   26068.65860419  .00002771  00000+0  35776-3 0  9991
2 65552  49.9855 140.9561 0011445 240.5429 119.4368 14.83793189 27017
