[{"OBJECT_NAME":"KUIPER-00020","OBJECT_ID":"2025-088M","EPOCH":"2026-03-09T07:33:05.565600","MEAN_MOTION":14.79999577,"ECCENTRICITY":0.00065612,"INCLINATION":51.9003,"RA_OF_ASC_NODE":104.7471,"ARG_OF_PERICENTER":80.9967,"MEAN_ANOMALY":279.1738,"EPHEMERIS_TYPE":0,"CLASSIFICATION_TYPE":"U","NORAD_CAT_ID":63735,"ELEMENT_SET_NO":999,"REV_AT_EPOCH":4760,"BSTAR":0.00067043352,"MEAN_MOTION_DOT":4.902e-5,"MEAN_MOTION_DDOT":0},{"OBJECT_NAME":"GEESAT-5 03","OBJECT_ID":"2025-201C","EPOCH":"2026-03-09T15:48:23.402016","MEAN_MOTION":14.83793189,"ECCENTRICITY":0.00114449,"INCLINATION":49.9855,"RA_OF_ASC_NODE":140.9561,"ARG_OF_PERICENTER":240.5429,"MEAN_ANOMALY":119.4368,"EPHEMERIS_TYPE":0,"CLASSIFICATION_TYPE":"U","NORAD_CAT_ID":65552,"ELEMENT_SET_NO":999,"REV_AT_EPOCH":2701,"BSTAR":0.00035775974,"MEAN_MOTION_DOT":2.771e-5,"MEAN_MOTION_DDOT":0}]
